{"type": "FeatureCollection", "features": [{"type": "Feature", "geometry": {"type": "Polygon", "coordinates": [[[-75.1643881, 39.9524496], [-75.1645363, 39.9517944], [-75.1648791, 39.951836], [-75.1650327, 39.9518838], [-75.1650663, 39.951903], [-75.1651118, 39.951929], [-75.165152, 39.9519845], [-75.1651554, 39.9520477], [-75.165142, 39.9521094], [-75.1651032, 39.9523802], [-75.1649428, 39.9532244], [-75.1649536, 39.9532531], [-75.1649457, 39.9532878], [-75.1649241, 39.953323], [-75.1648785, 39.9533683], [-75.1648275, 39.9534012], [-75.1647846, 39.9534217], [-75.1647524, 39.953432], [-75.1647175, 39.9534402], [-75.1646692, 39.9534464], [-75.1646263, 39.9534433], [-75.1646069, 39.9534366], [-75.1645366, 39.9534153], [-75.1644588, 39.9533999], [-75.164201, 39.9533673], [-75.1643675, 39.9525447], [-75.1643798, 39.9524878], [-75.1643881, 39.9524496]]]}, "properties": {"source": "https://www.openstreetmap.org/way/410095875", "retrieved": "2026-09-12", "note": "Current OSM park polygon, historical footprint proxy; construction began January 2012, opening phased in 2014."}}]}