{"type": "Feature", "properties": {"source": "OpenStreetMap contemporary named cycleways; historical proxy"}, "geometry": {"type": "MultiLineString", "coordinates": [[[-90.0705916, 29.9613134], [-90.0707296, 29.9613482], [-90.0708542, 29.9613797], [-90.0709826, 29.9614659], [-90.0712758, 29.9616545], [-90.071782, 29.9619936], [-90.0719194, 29.9620871], [-90.0720042, 29.9621349], [-90.0720995, 29.9621499], [-90.0721524, 29.9621385], [-90.072211, 29.9620923], [-90.0722858, 29.9620088], [-90.0723524, 29.9619323], [-90.072441, 29.9618985], [-90.0725166, 29.9619146], [-90.0725491, 29.9619346], [-90.0727597, 29.9620644], [-90.0731104, 29.9622979], [-90.0734912, 29.962562], [-90.0737588, 29.9627242], [-90.0740386, 29.9629251]], [[-90.0918494, 29.9730356], [-90.091937, 29.973092], [-90.0920502, 29.9732107], [-90.0921228, 29.9734075], [-90.0922614, 29.9739871], [-90.0922833, 29.974013], [-90.0923275, 29.9740652], [-90.0924355, 29.9741525], [-90.0930526, 29.9745709], [-90.093091, 29.9745941], [-90.0940393, 29.9751669], [-90.0947791, 29.9756894], [-90.0957111, 29.9763237], [-90.097271, 29.977385], [-90.0973172, 29.9774165]], [[-90.0744956, 29.9632363], [-90.0749165, 29.9635235], [-90.0752301, 29.9637871], [-90.0753719, 29.9638858], [-90.0757118, 29.9640827], [-90.0760199, 29.9642055], [-90.0762123, 29.9642619], [-90.0765191, 29.9643554], [-90.0766922, 29.9644246], [-90.0771241, 29.9646946], [-90.0771922, 29.9647366], [-90.0772428, 29.9647677], [-90.0773511, 29.9647865], [-90.0780718, 29.9647018], [-90.0781776, 29.9647041], [-90.0782675, 29.9647213], [-90.0783574, 29.9647579], [-90.0784951, 29.9648439], [-90.0787018, 29.9649956], [-90.0791829, 29.9653031]], [[-90.0740386, 29.9629251], [-90.0740829, 29.9629561], [-90.0744324, 29.9631932], [-90.0744956, 29.9632363]], [[-90.0975679, 29.9775837], [-90.0976004, 29.9776047], [-90.0979601, 29.9778363], [-90.0980364, 29.9778855], [-90.0981224, 29.9779464], [-90.0985913, 29.9782783], [-90.0991211, 29.978638], [-90.0994233, 29.9788315], [-90.100073, 29.9792507], [-90.1003654, 29.9794663], [-90.1009058, 29.9798156], [-90.101294, 29.9800786]], [[-90.0973172, 29.9774165], [-90.097359, 29.9774449], [-90.0973905, 29.9774664], [-90.0974779, 29.9775242], [-90.0975062, 29.977544], [-90.0975679, 29.9775837]], [[-90.0918132, 29.9730079], [-90.0918494, 29.9730356]], [[-90.0917723, 29.9729765], [-90.0918132, 29.9730079]], [[-90.0916773, 29.9729165], [-90.0917468, 29.9729538], [-90.0917723, 29.9729765]], [[-90.0913649, 29.9727326], [-90.091508, 29.9728053], [-90.0915444, 29.9728403]], [[-90.0912815, 29.9726899], [-90.0913127, 29.9727061], [-90.0913649, 29.9727326]], [[-90.0794652, 29.965494], [-90.080483, 29.9661769], [-90.0820157, 29.9672053], [-90.0830565, 29.967923], [-90.0842697, 29.9687429], [-90.0842886, 29.9687567]], [[-90.0791829, 29.9653031], [-90.0792297, 29.965333], [-90.0793997, 29.96545], [-90.0794652, 29.965494]], [[-90.0846634, 29.9690184], [-90.0847901, 29.969094], [-90.0849263, 29.9691707], [-90.0852217, 29.9692426], [-90.0853695, 29.9693271], [-90.0859789, 29.9696805], [-90.0869586, 29.9702378], [-90.0871611, 29.970357], [-90.0877826, 29.9707065], [-90.0880108, 29.9708339], [-90.088329, 29.971014], [-90.088933, 29.9713593], [-90.0893728, 29.9716068], [-90.0896102, 29.9717432], [-90.0898666, 29.9718898], [-90.0900499, 29.9719946], [-90.0900862, 29.9720153], [-90.0907994, 29.9724219], [-90.0910999, 29.9725954], [-90.0911047, 29.9725982], [-90.0912815, 29.9726899]], [[-90.0842886, 29.9687567], [-90.0843611, 29.9688096], [-90.0844694, 29.9688765], [-90.0845958, 29.968974], [-90.0846634, 29.9690184]]]}}