{"type": "FeatureCollection", "features": [{"type": "Feature", "geometry": {"type": "Polygon", "coordinates": [[[-86.7707617278478, 36.1590103219997], [-86.7708141666617, 36.1590956311637], [-86.7715396113098, 36.1588011092138], [-86.7718612907874, 36.1586705086019], [-86.7718805793714, 36.1587010455446], [-86.7719588389347, 36.1588249427891], [-86.7723446544908, 36.1594357480164], [-86.7723454672415, 36.1594370361374], [-86.7723489608755, 36.1594425665037], [-86.7724218758965, 36.1595580013641], [-86.7727549905558, 36.1600853622502], [-86.7728775411538, 36.1602793743549], [-86.773446747453, 36.1611804746662], [-86.7730208050022, 36.161364541806], [-86.7728371845408, 36.1615076578283], [-86.7727954963439, 36.1615401496694], [-86.7727464539628, 36.1615783737919], [-86.7726048355751, 36.1616786229044], [-86.7721587349757, 36.1613058458687], [-86.7707481250172, 36.1606520249618], [-86.7703029314932, 36.1604132234179], [-86.7703835128485, 36.1603817225115], [-86.7703909125559, 36.1603786163668], [-86.7708021726384, 36.1602059802999], [-86.7708589204299, 36.160182158696], [-86.7700798685323, 36.1597568823092], [-86.7700709689754, 36.1597520235709], [-86.770121742461, 36.1596562397898], [-86.7701795111319, 36.1595630989292], [-86.7702440681706, 36.1594729366705], [-86.7703151799862, 36.1593860780495], [-86.7703925906514, 36.1593028365282], [-86.7704760207642, 36.1592235112972], [-86.7705658920931, 36.1591478157514], [-86.7706612443779, 36.1590766653899], [-86.7707617278478, 36.1590103219997]]]}, "properties": {"source": "https://services2.arcgis.com/HdTo6HJqh92wn4D8/arcgis/rest/services/Park_Boundary_View/FeatureServer/6", "retrieved": "2026-09-12", "note": "Southern component of official Riverfront polygon containing Ascend: 12.53 current mapped acres versus 11-acre 2015 addition; excludes older northern component. Euclidean distance can cross river."}}]}