{"type": "FeatureCollection", "features": [{"type": "Feature", "geometry": {"type": "Polygon", "coordinates": [[[-82.4633592, 27.9580436], [-82.4633832, 27.9580588], [-82.4634037, 27.9580719], [-82.463401, 27.9583159], [-82.4636685, 27.9583135], [-82.4636319, 27.9584617], [-82.4636234, 27.9585494], [-82.463579, 27.9591433], [-82.4635784, 27.9591518], [-82.4635778, 27.9591627], [-82.463562, 27.9594634], [-82.4635763, 27.9595747], [-82.4635793, 27.9595977], [-82.4635618, 27.9596008], [-82.4635205, 27.9596083], [-82.463495, 27.959613], [-82.4634567, 27.9595388], [-82.463397, 27.9595283], [-82.4633458, 27.9595102], [-82.4633212, 27.9594981], [-82.4632928, 27.9594932], [-82.4632496, 27.959499], [-82.4632055, 27.9595141], [-82.4631776, 27.9595291], [-82.4631452, 27.9595431], [-82.4630824, 27.959543], [-82.4630632, 27.9595434], [-82.4629765, 27.9595429], [-82.4629056, 27.9595389], [-82.4628507, 27.9595358], [-82.4628117, 27.9595422], [-82.4627825, 27.9595588], [-82.4626863, 27.9595727], [-82.4624874, 27.9595678], [-82.4624874, 27.9595562], [-82.4624738, 27.9595482], [-82.4624736, 27.9594518], [-82.4624736, 27.9594339], [-82.4624735, 27.9594143], [-82.4624727, 27.9588416], [-82.4624727, 27.9588388], [-82.4624765, 27.958799], [-82.4624843, 27.9587603], [-82.4624868, 27.9587537], [-82.4625014, 27.9587096], [-82.462514, 27.9586804], [-82.4625327, 27.9586511], [-82.4625677, 27.9586002], [-82.4625998, 27.9585703], [-82.4626346, 27.9585432], [-82.4632494, 27.9581193], [-82.4632809, 27.9580965], [-82.463314, 27.9580747], [-82.4633317, 27.9580625], [-82.4633422, 27.9580553], [-82.4633592, 27.9580436]]]}, "properties": {"source": "https://www.openstreetmap.org/way/190127200", "retrieved": "2026-09-12", "note": "Current OSM park polygon, historical proxy; construction October 2013. Adjacent Ulele redevelopment and wider Riverwalk construction confound attribution."}}]}