{"type":"FeatureCollection","crs":{"type":"name","properties":{"name":"EPSG:4326"}},"features":[{"type":"Feature","id":11,"geometry":{"type":"Polygon","coordinates":[[[-75.1613115253191,39.9604414015974],[-75.1611294298077,39.960418189352],[-75.161129234606,39.9604190409135],[-75.1609093967258,39.9603907706963],[-75.1609095919303,39.9603899191352],[-75.1608945991863,39.9603880977164],[-75.1608611959541,39.9603840236429],[-75.1608301019875,39.9603803719929],[-75.1608179011444,39.9603789361353],[-75.1605108332283,39.9603386546731],[-75.1600704595544,39.9602828209847],[-75.1597965868715,39.9602478181703],[-75.1597864508305,39.9602465225247],[-75.1595913570504,39.9602280131979],[-75.1596178290957,39.9601051850094],[-75.1588394802165,39.960011175965],[-75.1587246200074,39.9599940492346],[-75.1586112986075,39.9599716672697],[-75.1584999181699,39.9599441085366],[-75.1583908800211,39.9599114731088],[-75.158284574373,39.9598738761278],[-75.1581813812513,39.9598314541304],[-75.1580816695662,39.9597843587209],[-75.1578245661495,39.9596523632628],[-75.1576479277109,39.9595328886063],[-75.157666047533,39.9594521667595],[-75.1575846375387,39.9593135021933],[-75.1575358366416,39.9592326052811],[-75.1575237268535,39.9591881952593],[-75.1574948776258,39.9590824107399],[-75.1574650586515,39.9589896762695],[-75.1574537221133,39.9589452251455],[-75.1575801469862,39.958960729589],[-75.1576319576194,39.9591067813445],[-75.1576285941314,39.9591230344949],[-75.1576630643606,39.9591990060544],[-75.1577045606759,39.959272868497],[-75.1577528671309,39.9593442367056],[-75.1578077332664,39.9594127401],[-75.1578688729737,39.9594780217101],[-75.157935969003,39.9595397427834],[-75.1580086706912,39.9595975809314],[-75.158086601911,39.9596512366172],[-75.1581076331855,39.9596537174204],[-75.1582645498565,39.9597451593549],[-75.1583552083304,39.9597843698186],[-75.1584490377317,39.959818880946],[-75.1585456281364,39.9598485420104],[-75.1586445559941,39.9598732218012],[-75.1587453874316,39.9598928141042],[-75.158765915947,39.959898870381],[-75.1596385794599,39.960004271025],[-75.1598354109071,39.960028043616],[-75.159846412947,39.9599748373399],[-75.1598464778758,39.9599748541231],[-75.1599109156986,39.9599917721515],[-75.1601395755567,39.9600518034044],[-75.1614502361137,39.9602221891688],[-75.1616982024695,39.960254430315],[-75.161649950796,39.9604850481496],[-75.1613115253191,39.9604414015974]]]},"properties":{"OBJECTID":11,"Name":"Rail Park","MaintContract":null,"Shape__Area":81736.06939697266,"Shape__Length":2941.37462795991}}]}
